<?xml version="1.0" encoding="UTF-8"?>
<ndm xmlns:xsi="http://www.w3.org/2001/XMLSchema-instance" xsi:noNamespaceSchemaLocation="https://sanaregistry.org/r/ndmxml_unqualified/ndmxml-2.0.0-master-2.0.xsd">
<omm id="CCSDS_OMM_VERS" version="2.0">
<header><CREATION_DATE/><ORIGINATOR/></header><body><segment><metadata><OBJECT_NAME>QIANFAN-41</OBJECT_NAME><OBJECT_ID>2024-232F</OBJECT_ID><CENTER_NAME>EARTH</CENTER_NAME><REF_FRAME>TEME</REF_FRAME><TIME_SYSTEM>UTC</TIME_SYSTEM><MEAN_ELEMENT_THEORY>SGP4</MEAN_ELEMENT_THEORY></metadata><data><meanElements><EPOCH>2025-10-09T20:15:56.297376</EPOCH><MEAN_MOTION>13.50975913</MEAN_MOTION><ECCENTRICITY>.0014218</ECCENTRICITY><INCLINATION>89.0013</INCLINATION><RA_OF_ASC_NODE>47.6310</RA_OF_ASC_NODE><ARG_OF_PERICENTER>23.4584</ARG_OF_PERICENTER><MEAN_ANOMALY>336.7213</MEAN_ANOMALY></meanElements><tleParameters><EPHEMERIS_TYPE>0</EPHEMERIS_TYPE><CLASSIFICATION_TYPE>U</CLASSIFICATION_TYPE><NORAD_CAT_ID>62242</NORAD_CAT_ID><ELEMENT_SET_NO>999</ELEMENT_SET_NO><REV_AT_EPOCH>9062</REV_AT_EPOCH><BSTAR>.15435E-3</BSTAR><MEAN_MOTION_DOT>.112E-5</MEAN_MOTION_DOT><MEAN_MOTION_DDOT>0</MEAN_MOTION_DDOT></tleParameters></data></segment></body></omm>
<omm id="CCSDS_OMM_VERS" version="2.0">
<header><CREATION_DATE/><ORIGINATOR/></header><body><segment><metadata><OBJECT_NAME>QIANFAN-42</OBJECT_NAME><OBJECT_ID>2024-232G</OBJECT_ID><CENTER_NAME>EARTH</CENTER_NAME><REF_FRAME>TEME</REF_FRAME><TIME_SYSTEM>UTC</TIME_SYSTEM><MEAN_ELEMENT_THEORY>SGP4</MEAN_ELEMENT_THEORY></metadata><data><meanElements><EPOCH>2025-10-09T20:19:45.978816</EPOCH><MEAN_MOTION>14.24383679</MEAN_MOTION><ECCENTRICITY>.0012927</ECCENTRICITY><INCLINATION>89.0011</INCLINATION><RA_OF_ASC_NODE>44.6400</RA_OF_ASC_NODE><ARG_OF_PERICENTER>296.1849</ARG_OF_PERICENTER><MEAN_ANOMALY>63.8014</MEAN_ANOMALY></meanElements><tleParameters><EPHEMERIS_TYPE>0</EPHEMERIS_TYPE><CLASSIFICATION_TYPE>U</CLASSIFICATION_TYPE><NORAD_CAT_ID>62243</NORAD_CAT_ID><ELEMENT_SET_NO>999</ELEMENT_SET_NO><REV_AT_EPOCH>9227</REV_AT_EPOCH><BSTAR>.24252E-3</BSTAR><MEAN_MOTION_DOT>.575E-5</MEAN_MOTION_DOT><MEAN_MOTION_DDOT>0</MEAN_MOTION_DDOT></tleParameters></data></segment></body></omm>
<omm id="CCSDS_OMM_VERS" version="2.0">
<header><CREATION_DATE/><ORIGINATOR/></header><body><segment><metadata><OBJECT_NAME>QIANFAN-43</OBJECT_NAME><OBJECT_ID>2024-232H</OBJECT_ID><CENTER_NAME>EARTH</CENTER_NAME><REF_FRAME>TEME</REF_FRAME><TIME_SYSTEM>UTC</TIME_SYSTEM><MEAN_ELEMENT_THEORY>SGP4</MEAN_ELEMENT_THEORY></metadata><data><meanElements><EPOCH>2025-10-09T20:10:04.007424</EPOCH><MEAN_MOTION>13.50977029</MEAN_MOTION><ECCENTRICITY>.001589</ECCENTRICITY><INCLINATION>89.0017</INCLINATION><RA_OF_ASC_NODE>47.6939</RA_OF_ASC_NODE><ARG_OF_PERICENTER>27.8434</ARG_OF_PERICENTER><MEAN_ANOMALY>332.3564</MEAN_ANOMALY></meanElements><tleParameters><EPHEMERIS_TYPE>0</EPHEMERIS_TYPE><CLASSIFICATION_TYPE>U</CLASSIFICATION_TYPE><NORAD_CAT_ID>62244</NORAD_CAT_ID><ELEMENT_SET_NO>999</ELEMENT_SET_NO><REV_AT_EPOCH>5923</REV_AT_EPOCH><BSTAR>.16633E-3</BSTAR><MEAN_MOTION_DOT>.119E-5</MEAN_MOTION_DOT><MEAN_MOTION_DDOT>0</MEAN_MOTION_DDOT></tleParameters></data></segment></body></omm>
<omm id="CCSDS_OMM_VERS" version="2.0">
<header><CREATION_DATE/><ORIGINATOR/></header><body><segment><metadata><OBJECT_NAME>QIANFAN-44</OBJECT_NAME><OBJECT_ID>2024-232J</OBJECT_ID><CENTER_NAME>EARTH</CENTER_NAME><REF_FRAME>TEME</REF_FRAME><TIME_SYSTEM>UTC</TIME_SYSTEM><MEAN_ELEMENT_THEORY>SGP4</MEAN_ELEMENT_THEORY></metadata><data><meanElements><EPOCH>2025-10-09T19:52:12.222336</EPOCH><MEAN_MOTION>13.50978311</MEAN_MOTION><ECCENTRICITY>.0014031</ECCENTRICITY><INCLINATION>89.0016</INCLINATION><RA_OF_ASC_NODE>47.5069</RA_OF_ASC_NODE><ARG_OF_PERICENTER>25.8370</ARG_OF_PERICENTER><MEAN_ANOMALY>334.3479</MEAN_ANOMALY></meanElements><tleParameters><EPHEMERIS_TYPE>0</EPHEMERIS_TYPE><CLASSIFICATION_TYPE>U</CLASSIFICATION_TYPE><NORAD_CAT_ID>62245</NORAD_CAT_ID><ELEMENT_SET_NO>999</ELEMENT_SET_NO><REV_AT_EPOCH>9070</REV_AT_EPOCH><BSTAR>.17807E-3</BSTAR><MEAN_MOTION_DOT>.127E-5</MEAN_MOTION_DOT><MEAN_MOTION_DDOT>0</MEAN_MOTION_DDOT></tleParameters></data></segment></body></omm>
<omm id="CCSDS_OMM_VERS" version="2.0">
<header><CREATION_DATE/><ORIGINATOR/></header><body><segment><metadata><OBJECT_NAME>QIANFAN-45</OBJECT_NAME><OBJECT_ID>2024-232K</OBJECT_ID><CENTER_NAME>EARTH</CENTER_NAME><REF_FRAME>TEME</REF_FRAME><TIME_SYSTEM>UTC</TIME_SYSTEM><MEAN_ELEMENT_THEORY>SGP4</MEAN_ELEMENT_THEORY></metadata><data><meanElements><EPOCH>2025-10-09T19:04:52.525632</EPOCH><MEAN_MOTION>13.50974931</MEAN_MOTION><ECCENTRICITY>.0014664</ECCENTRICITY><INCLINATION>89.0019</INCLINATION><RA_OF_ASC_NODE>47.6545</RA_OF_ASC_NODE><ARG_OF_PERICENTER>25.2624</ARG_OF_PERICENTER><MEAN_ANOMALY>334.9241</MEAN_ANOMALY></meanElements><tleParameters><EPHEMERIS_TYPE>0</EPHEMERIS_TYPE><CLASSIFICATION_TYPE>U</CLASSIFICATION_TYPE><NORAD_CAT_ID>62246</NORAD_CAT_ID><ELEMENT_SET_NO>999</ELEMENT_SET_NO><REV_AT_EPOCH>9062</REV_AT_EPOCH><BSTAR>.15986E-3</BSTAR><MEAN_MOTION_DOT>.115E-5</MEAN_MOTION_DOT><MEAN_MOTION_DDOT>0</MEAN_MOTION_DDOT></tleParameters></data></segment></body></omm>
<omm id="CCSDS_OMM_VERS" version="2.0">
<header><CREATION_DATE/><ORIGINATOR/></header><body><segment><metadata><OBJECT_NAME>QIANFAN-46</OBJECT_NAME><OBJECT_ID>2024-232L</OBJECT_ID><CENTER_NAME>EARTH</CENTER_NAME><REF_FRAME>TEME</REF_FRAME><TIME_SYSTEM>UTC</TIME_SYSTEM><MEAN_ELEMENT_THEORY>SGP4</MEAN_ELEMENT_THEORY></metadata><data><meanElements><EPOCH>2025-10-09T19:40:23.438208</EPOCH><MEAN_MOTION>13.50975563</MEAN_MOTION><ECCENTRICITY>.0014914</ECCENTRICITY><INCLINATION>89.0015</INCLINATION><RA_OF_ASC_NODE>47.7235</RA_OF_ASC_NODE><ARG_OF_PERICENTER>30.4694</ARG_OF_PERICENTER><MEAN_ANOMALY>329.7321</MEAN_ANOMALY></meanElements><tleParameters><EPHEMERIS_TYPE>0</EPHEMERIS_TYPE><CLASSIFICATION_TYPE>U</CLASSIFICATION_TYPE><NORAD_CAT_ID>62247</NORAD_CAT_ID><ELEMENT_SET_NO>999</ELEMENT_SET_NO><REV_AT_EPOCH>9058</REV_AT_EPOCH><BSTAR>.16868E-3</BSTAR><MEAN_MOTION_DOT>.121E-5</MEAN_MOTION_DOT><MEAN_MOTION_DDOT>0</MEAN_MOTION_DDOT></tleParameters></data></segment></body></omm>
<omm id="CCSDS_OMM_VERS" version="2.0">
<header><CREATION_DATE/><ORIGINATOR/></header><body><segment><metadata><OBJECT_NAME>QIANFAN-47</OBJECT_NAME><OBJECT_ID>2024-232M</OBJECT_ID><CENTER_NAME>EARTH</CENTER_NAME><REF_FRAME>TEME</REF_FRAME><TIME_SYSTEM>UTC</TIME_SYSTEM><MEAN_ELEMENT_THEORY>SGP4</MEAN_ELEMENT_THEORY></metadata><data><meanElements><EPOCH>2025-10-09T19:46:20.968320</EPOCH><MEAN_MOTION>13.50977335</MEAN_MOTION><ECCENTRICITY>.0015303</ECCENTRICITY><INCLINATION>89.0011</INCLINATION><RA_OF_ASC_NODE>47.6587</RA_OF_ASC_NODE><ARG_OF_PERICENTER>29.4465</ARG_OF_PERICENTER><MEAN_ANOMALY>330.7545</MEAN_ANOMALY></meanElements><tleParameters><EPHEMERIS_TYPE>0</EPHEMERIS_TYPE><CLASSIFICATION_TYPE>U</CLASSIFICATION_TYPE><NORAD_CAT_ID>62248</NORAD_CAT_ID><ELEMENT_SET_NO>999</ELEMENT_SET_NO><REV_AT_EPOCH>9061</REV_AT_EPOCH><BSTAR>.18571E-3</BSTAR><MEAN_MOTION_DOT>.132E-5</MEAN_MOTION_DOT><MEAN_MOTION_DDOT>0</MEAN_MOTION_DDOT></tleParameters></data></segment></body></omm>
<omm id="CCSDS_OMM_VERS" version="2.0">
<header><CREATION_DATE/><ORIGINATOR/></header><body><segment><metadata><OBJECT_NAME>QIANFAN-48</OBJECT_NAME><OBJECT_ID>2024-232N</OBJECT_ID><CENTER_NAME>EARTH</CENTER_NAME><REF_FRAME>TEME</REF_FRAME><TIME_SYSTEM>UTC</TIME_SYSTEM><MEAN_ELEMENT_THEORY>SGP4</MEAN_ELEMENT_THEORY></metadata><data><meanElements><EPOCH>2025-10-09T20:39:44.733888</EPOCH><MEAN_MOTION>13.50973121</MEAN_MOTION><ECCENTRICITY>.0017611</ECCENTRICITY><INCLINATION>89.0015</INCLINATION><RA_OF_ASC_NODE>47.6543</RA_OF_ASC_NODE><ARG_OF_PERICENTER>31.0609</ARG_OF_PERICENTER><MEAN_ANOMALY>329.1580</MEAN_ANOMALY></meanElements><tleParameters><EPHEMERIS_TYPE>0</EPHEMERIS_TYPE><CLASSIFICATION_TYPE>U</CLASSIFICATION_TYPE><NORAD_CAT_ID>62249</NORAD_CAT_ID><ELEMENT_SET_NO>999</ELEMENT_SET_NO><REV_AT_EPOCH>9062</REV_AT_EPOCH><BSTAR>.16676E-3</BSTAR><MEAN_MOTION_DOT>.12E-5</MEAN_MOTION_DOT><MEAN_MOTION_DDOT>0</MEAN_MOTION_DDOT></tleParameters></data></segment></body></omm>

</ndm>
