QIANFAN-41              
1 62242U 24232F   25282.84440159  .00000112  00000+0  15435-3 0  9997
2 62242  89.0013  47.6310 0014218  23.4584 336.7213 13.50975913 90627
QIANFAN-42              
1 62243U 24232G   25282.84705994  .00000575  00000+0  24252-3 0  9999
2 62243  89.0011  44.6400 0012927 296.1849  63.8014 14.24383679 92275
QIANFAN-43              
1 62244U 24232H   25282.84032416  .00000119  00000+0  16633-3 0  9990
2 62244  89.0017  47.6939 0015890  27.8434 332.3564 13.50977029 59232
QIANFAN-44              
1 62245U 24232J   25282.82791924  .00000127  00000+0  17807-3 0  9998
2 62245  89.0016  47.5069 0014031  25.8370 334.3479 13.50978311 90707
QIANFAN-45              
1 62246U 24232K   25282.79505238  .00000115  00000+0  15986-3 0  9999
2 62246  89.0019  47.6545 0014664  25.2624 334.9241 13.50974931 90627
QIANFAN-46              
1 62247U 24232L   25282.81971572  .00000121  00000+0  16868-3 0  9998
2 62247  89.0015  47.7235 0014914  30.4694 329.7321 13.50975563 90582
QIANFAN-47              
1 62248U 24232M   25282.82385380  .00000132  00000+0  18571-3 0  9991
2 62248  89.0011  47.6587 0015303  29.4465 330.7545 13.50977335 90618
QIANFAN-48              
1 62249U 24232N   25282.86093442  .00000120  00000+0  16676-3 0  9992
2 62249  89.0015  47.6543 0017611  31.0609 329.1580 13.50973121 90629
